<?xml version="1.0" encoding="UTF-8"?>
<gpx xmlns="http://www.topografix.com/GPX/1/1" creator="MTK - http://www.toursprung.com" version="1.1"
   xmlns:xsi="http://www.w3.org/2001/XMLSchema-instance"
   xsi:schemaLocation="http://www.topografix.com/GPX/1/1 http://www.topografix.com/GPX/1/1/gpx.xsd">
   <metadata>
      <name><![CDATA[Hohe Tour (Ski) Zinnwald - Bad Schandau]]></name>
      
   </metadata>
   
      <trk><name><![CDATA[Hohe Tour (Ski) Zinnwald - Bad Schandau]]></name><trkseg>
         <trkpt lat="50.73633" lon="13.76178"><ele>815</ele></trkpt>
<trkpt lat="50.73649" lon="13.76293"><ele>810</ele></trkpt>
<trkpt lat="50.73652" lon="13.76464"><ele>808</ele></trkpt>
<trkpt lat="50.73643" lon="13.76547"><ele>808</ele></trkpt>
<trkpt lat="50.73611" lon="13.76592"><ele>809</ele></trkpt>
<trkpt lat="50.7346" lon="13.76708"><ele>815</ele></trkpt>
<trkpt lat="50.7336" lon="13.76859"><ele>814</ele></trkpt>
<trkpt lat="50.73311" lon="13.76881"><ele>815</ele></trkpt>
<trkpt lat="50.73269" lon="13.76945"><ele>815</ele></trkpt>
<trkpt lat="50.7324" lon="13.76952"><ele>814</ele></trkpt>
<trkpt lat="50.73217" lon="13.77012"><ele>811</ele></trkpt>
<trkpt lat="50.7321" lon="13.77053"><ele>809</ele></trkpt>
<trkpt lat="50.73214" lon="13.77135"><ele>809</ele></trkpt>
<trkpt lat="50.73232" lon="13.77196"><ele>809</ele></trkpt>
<trkpt lat="50.73254" lon="13.77409"><ele>811</ele></trkpt>
<trkpt lat="50.73262" lon="13.77443"><ele>812</ele></trkpt>
<trkpt lat="50.73287" lon="13.77473"><ele>813</ele></trkpt>
<trkpt lat="50.73298" lon="13.77575"><ele>810</ele></trkpt>
<trkpt lat="50.73283" lon="13.77822"><ele>818</ele></trkpt>
<trkpt lat="50.73242" lon="13.78096"><ele>812</ele></trkpt>
<trkpt lat="50.73202" lon="13.78225"><ele>812</ele></trkpt>
<trkpt lat="50.73149" lon="13.78488"><ele>817</ele></trkpt>
<trkpt lat="50.73128" lon="13.78555"><ele>819</ele></trkpt>
<trkpt lat="50.73124" lon="13.7858"><ele>820</ele></trkpt>
<trkpt lat="50.73097" lon="13.78677"><ele>820</ele></trkpt>
<trkpt lat="50.72992" lon="13.78884"><ele>825</ele></trkpt>
<trkpt lat="50.72952" lon="13.79013"><ele>827</ele></trkpt>
<trkpt lat="50.72888" lon="13.79176"><ele>827</ele></trkpt>
<trkpt lat="50.72856" lon="13.79219"><ele>830</ele></trkpt>
<trkpt lat="50.72781" lon="13.79211"><ele>837</ele></trkpt>
<trkpt lat="50.72768" lon="13.79202"><ele>838</ele></trkpt>
<trkpt lat="50.72712" lon="13.79208"><ele>843</ele></trkpt>
<trkpt lat="50.72701" lon="13.79498"><ele>848</ele></trkpt>
<trkpt lat="50.72707" lon="13.79607"><ele>847</ele></trkpt>
<trkpt lat="50.72784" lon="13.79854"><ele>840</ele></trkpt>
<trkpt lat="50.72796" lon="13.7995"><ele>841</ele></trkpt>
<trkpt lat="50.72773" lon="13.80098"><ele>838</ele></trkpt>
<trkpt lat="50.72794" lon="13.80309"><ele>833</ele></trkpt>
<trkpt lat="50.72762" lon="13.80438"><ele>828</ele></trkpt>
<trkpt lat="50.72745" lon="13.80474"><ele>827</ele></trkpt>
<trkpt lat="50.72718" lon="13.80504"><ele>826</ele></trkpt>
<trkpt lat="50.72677" lon="13.80486"><ele>828</ele></trkpt>
<trkpt lat="50.72643" lon="13.80485"><ele>831</ele></trkpt>
<trkpt lat="50.72583" lon="13.8051"><ele>830</ele></trkpt>
<trkpt lat="50.72546" lon="13.80562"><ele>827</ele></trkpt>
<trkpt lat="50.72483" lon="13.80712"><ele>829</ele></trkpt>
<trkpt lat="50.72467" lon="13.80738"><ele>830</ele></trkpt>
<trkpt lat="50.7242" lon="13.8078"><ele>831</ele></trkpt>
<trkpt lat="50.72348" lon="13.80929"><ele>824</ele></trkpt>
<trkpt lat="50.72227" lon="13.81044"><ele>819</ele></trkpt>
<trkpt lat="50.72186" lon="13.81148"><ele>804</ele></trkpt>
<trkpt lat="50.72173" lon="13.81222"><ele>800</ele></trkpt>
<trkpt lat="50.72132" lon="13.81302"><ele>795</ele></trkpt>
<trkpt lat="50.72095" lon="13.81419"><ele>788</ele></trkpt>
<trkpt lat="50.72037" lon="13.8164"><ele>784</ele></trkpt>
<trkpt lat="50.7199" lon="13.81748"><ele>785</ele></trkpt>
<trkpt lat="50.71973" lon="13.81851"><ele>790</ele></trkpt>
<trkpt lat="50.71947" lon="13.81922"><ele>796</ele></trkpt>
<trkpt lat="50.71914" lon="13.81974"><ele>796</ele></trkpt>
<trkpt lat="50.71897" lon="13.82106"><ele>799</ele></trkpt>
<trkpt lat="50.7188" lon="13.82149"><ele>801</ele></trkpt>
<trkpt lat="50.71826" lon="13.82221"><ele>803</ele></trkpt>
<trkpt lat="50.71755" lon="13.82281"><ele>805</ele></trkpt>
<trkpt lat="50.71692" lon="13.82381"><ele>810</ele></trkpt>
<trkpt lat="50.71568" lon="13.82607"><ele>811</ele></trkpt>
<trkpt lat="50.71506" lon="13.82702"><ele>810</ele></trkpt>
<trkpt lat="50.7142" lon="13.8288"><ele>804</ele></trkpt>
<trkpt lat="50.71387" lon="13.82925"><ele>801</ele></trkpt>
<trkpt lat="50.71323" lon="13.82983"><ele>798</ele></trkpt>
<trkpt lat="50.71288" lon="13.83041"><ele>797</ele></trkpt>
<trkpt lat="50.71224" lon="13.83106"><ele>797</ele></trkpt>
<trkpt lat="50.71077" lon="13.83348"><ele>791</ele></trkpt>
<trkpt lat="50.70932" lon="13.8352"><ele>789</ele></trkpt>
<trkpt lat="50.70893" lon="13.83601"><ele>789</ele></trkpt>
<trkpt lat="50.70827" lon="13.83821"><ele>781</ele></trkpt>
<trkpt lat="50.70777" lon="13.83928"><ele>781</ele></trkpt>
<trkpt lat="50.70739" lon="13.83984"><ele>780</ele></trkpt>
<trkpt lat="50.70714" lon="13.84066"><ele>780</ele></trkpt>
<trkpt lat="50.70702" lon="13.84165"><ele>780</ele></trkpt>
<trkpt lat="50.70674" lon="13.84246"><ele>778</ele></trkpt>
<trkpt lat="50.70628" lon="13.8432"><ele>775</ele></trkpt>
<trkpt lat="50.70617" lon="13.84394"><ele>773</ele></trkpt>
<trkpt lat="50.70632" lon="13.84771"><ele>771</ele></trkpt>
<trkpt lat="50.70611" lon="13.84894"><ele>770</ele></trkpt>
<trkpt lat="50.7062" lon="13.85148"><ele>767</ele></trkpt>
<trkpt lat="50.70626" lon="13.85223"><ele>770</ele></trkpt>
<trkpt lat="50.70666" lon="13.85294"><ele>775</ele></trkpt>
<trkpt lat="50.707" lon="13.85403"><ele>782</ele></trkpt>
<trkpt lat="50.70736" lon="13.85466"><ele>785</ele></trkpt>
<trkpt lat="50.70731" lon="13.85492"><ele>786</ele></trkpt>
<trkpt lat="50.70694" lon="13.85531"><ele>790</ele></trkpt>
<trkpt lat="50.70685" lon="13.85629"><ele>799</ele></trkpt>
<trkpt lat="50.70692" lon="13.85665"><ele>798</ele></trkpt>
<trkpt lat="50.70705" lon="13.85702"><ele>795</ele></trkpt>
<trkpt lat="50.70718" lon="13.85784"><ele>788</ele></trkpt>
<trkpt lat="50.70793" lon="13.85917"><ele>777</ele></trkpt>
<trkpt lat="50.70862" lon="13.86077"><ele>764</ele></trkpt>
<trkpt lat="50.70981" lon="13.86394"><ele>738</ele></trkpt>
<trkpt lat="50.71064" lon="13.86531"><ele>729</ele></trkpt>
<trkpt lat="50.711" lon="13.86566"><ele>728</ele></trkpt>
<trkpt lat="50.71171" lon="13.86782"><ele>730</ele></trkpt>
<trkpt lat="50.71417" lon="13.87288"><ele>749</ele></trkpt>
<trkpt lat="50.71537" lon="13.87579"><ele>750</ele></trkpt>
<trkpt lat="50.71618" lon="13.87666"><ele>751</ele></trkpt>
<trkpt lat="50.71657" lon="13.87732"><ele>752</ele></trkpt>
<trkpt lat="50.71959" lon="13.87869"><ele>763</ele></trkpt>
<trkpt lat="50.72107" lon="13.87921"><ele>758</ele></trkpt>
<trkpt lat="50.72217" lon="13.87958"><ele>749</ele></trkpt>
<trkpt lat="50.72239" lon="13.87974"><ele>749</ele></trkpt>
<trkpt lat="50.72248" lon="13.87992"><ele>749</ele></trkpt>
<trkpt lat="50.72231" lon="13.88085"><ele>749</ele></trkpt>
<trkpt lat="50.72272" lon="13.88131"><ele>749</ele></trkpt>
<trkpt lat="50.72343" lon="13.88249"><ele>751</ele></trkpt>
<trkpt lat="50.72414" lon="13.88429"><ele>758</ele></trkpt>
<trkpt lat="50.72464" lon="13.88582"><ele>760</ele></trkpt>
<trkpt lat="50.72566" lon="13.88845"><ele>754</ele></trkpt>
<trkpt lat="50.7259" lon="13.88887"><ele>750</ele></trkpt>
<trkpt lat="50.72637" lon="13.88937"><ele>747</ele></trkpt>
<trkpt lat="50.7272" lon="13.89065"><ele>745</ele></trkpt>
<trkpt lat="50.72752" lon="13.89176"><ele>746</ele></trkpt>
<trkpt lat="50.72795" lon="13.8943"><ele>750</ele></trkpt>
<trkpt lat="50.72817" lon="13.89492"><ele>750</ele></trkpt>
<trkpt lat="50.72995" lon="13.89768"><ele>741</ele></trkpt>
<trkpt lat="50.73018" lon="13.89856"><ele>741</ele></trkpt>
<trkpt lat="50.73125" lon="13.90058"><ele>743</ele></trkpt>
<trkpt lat="50.73163" lon="13.90109"><ele>744</ele></trkpt>
<trkpt lat="50.73233" lon="13.9017"><ele>744</ele></trkpt>
<trkpt lat="50.73265" lon="13.90212"><ele>746</ele></trkpt>
<trkpt lat="50.73341" lon="13.90254"><ele>749</ele></trkpt>
<trkpt lat="50.73358" lon="13.90275"><ele>750</ele></trkpt>
<trkpt lat="50.73367" lon="13.90306"><ele>751</ele></trkpt>
<trkpt lat="50.7343" lon="13.90371"><ele>753</ele></trkpt>
<trkpt lat="50.7353" lon="13.90533"><ele>753</ele></trkpt>
<trkpt lat="50.73523" lon="13.90577"><ele>752</ele></trkpt>
<trkpt lat="50.73529" lon="13.90613"><ele>751</ele></trkpt>
<trkpt lat="50.73461" lon="13.909"><ele>749</ele></trkpt>
<trkpt lat="50.73487" lon="13.90969"><ele>749</ele></trkpt>
<trkpt lat="50.73521" lon="13.91132"><ele>749</ele></trkpt>
<trkpt lat="50.73513" lon="13.91307"><ele>740</ele></trkpt>
<trkpt lat="50.73645" lon="13.91323"><ele>740</ele></trkpt>
<trkpt lat="50.73642" lon="13.91385"><ele>738</ele></trkpt>
<trkpt lat="50.7367" lon="13.91619"><ele>727</ele></trkpt>
<trkpt lat="50.73752" lon="13.92042"><ele>735</ele></trkpt>
<trkpt lat="50.73767" lon="13.92077"><ele>734</ele></trkpt>
<trkpt lat="50.73838" lon="13.92582"><ele>715</ele></trkpt>
<trkpt lat="50.74091" lon="13.93393"><ele>704</ele></trkpt>
<trkpt lat="50.74113" lon="13.9339"><ele>705</ele></trkpt>
<trkpt lat="50.74179" lon="13.934"><ele>710</ele></trkpt>
<trkpt lat="50.74264" lon="13.93484"><ele>707</ele></trkpt>
<trkpt lat="50.74327" lon="13.93569"><ele>700</ele></trkpt>
<trkpt lat="50.74437" lon="13.93655"><ele>692</ele></trkpt>
<trkpt lat="50.7453" lon="13.93663"><ele>691</ele></trkpt>
<trkpt lat="50.74583" lon="13.93694"><ele>690</ele></trkpt>
<trkpt lat="50.74642" lon="13.93702"><ele>683</ele></trkpt>
<trkpt lat="50.7472" lon="13.93754"><ele>680</ele></trkpt>
<trkpt lat="50.74816" lon="13.93765"><ele>681</ele></trkpt>
<trkpt lat="50.74826" lon="13.93795"><ele>681</ele></trkpt>
<trkpt lat="50.74854" lon="13.94064"><ele>687</ele></trkpt>
<trkpt lat="50.74824" lon="13.9421"><ele>693</ele></trkpt>
<trkpt lat="50.74792" lon="13.94293"><ele>695</ele></trkpt>
<trkpt lat="50.74786" lon="13.94352"><ele>696</ele></trkpt>
<trkpt lat="50.74798" lon="13.94478"><ele>704</ele></trkpt>
<trkpt lat="50.74785" lon="13.94668"><ele>707</ele></trkpt>
<trkpt lat="50.74809" lon="13.9481"><ele>716</ele></trkpt>
<trkpt lat="50.74824" lon="13.94834"><ele>717</ele></trkpt>
<trkpt lat="50.74855" lon="13.94801"><ele>718</ele></trkpt>
<trkpt lat="50.74938" lon="13.94779"><ele>719</ele></trkpt>
<trkpt lat="50.75006" lon="13.94704"><ele>720</ele></trkpt>
<trkpt lat="50.75059" lon="13.94671"><ele>721</ele></trkpt>
<trkpt lat="50.75144" lon="13.94655"><ele>723</ele></trkpt>
<trkpt lat="50.75202" lon="13.94662"><ele>724</ele></trkpt>
<trkpt lat="50.75256" lon="13.94657"><ele>724</ele></trkpt>
<trkpt lat="50.75312" lon="13.94618"><ele>724</ele></trkpt>
<trkpt lat="50.75333" lon="13.94591"><ele>724</ele></trkpt>
<trkpt lat="50.75529" lon="13.94634"><ele>716</ele></trkpt>
<trkpt lat="50.75552" lon="13.94621"><ele>715</ele></trkpt>
<trkpt lat="50.75736" lon="13.94444"><ele>709</ele></trkpt>
<trkpt lat="50.75742" lon="13.94456"><ele>709</ele></trkpt>
<trkpt lat="50.75735" lon="13.94478"><ele>708</ele></trkpt>
<trkpt lat="50.75784" lon="13.94547"><ele>705</ele></trkpt>
<trkpt lat="50.75823" lon="13.94637"><ele>702</ele></trkpt>
<trkpt lat="50.75843" lon="13.94739"><ele>699</ele></trkpt>
<trkpt lat="50.75858" lon="13.94857"><ele>696</ele></trkpt>
<trkpt lat="50.75892" lon="13.94971"><ele>683</ele></trkpt>
<trkpt lat="50.75895" lon="13.95068"><ele>675</ele></trkpt>
<trkpt lat="50.75908" lon="13.95102"><ele>673</ele></trkpt>
<trkpt lat="50.75955" lon="13.95187"><ele>669</ele></trkpt>
<trkpt lat="50.76009" lon="13.95177"><ele>668</ele></trkpt>
<trkpt lat="50.76013" lon="13.95247"><ele>668</ele></trkpt>
<trkpt lat="50.76029" lon="13.95346"><ele>668</ele></trkpt>
<trkpt lat="50.76043" lon="13.9536"><ele>669</ele></trkpt>
<trkpt lat="50.7606" lon="13.95399"><ele>669</ele></trkpt>
<trkpt lat="50.76056" lon="13.95559"><ele>679</ele></trkpt>
<trkpt lat="50.76088" lon="13.9569"><ele>684</ele></trkpt>
<trkpt lat="50.76092" lon="13.95775"><ele>687</ele></trkpt>
<trkpt lat="50.75983" lon="13.95921"><ele>694</ele></trkpt>
<trkpt lat="50.75882" lon="13.9609"><ele>696</ele></trkpt>
<trkpt lat="50.75843" lon="13.962"><ele>697</ele></trkpt>
<trkpt lat="50.75811" lon="13.96376"><ele>699</ele></trkpt>
<trkpt lat="50.75828" lon="13.96513"><ele>700</ele></trkpt>
<trkpt lat="50.75851" lon="13.96585"><ele>700</ele></trkpt>
<trkpt lat="50.75889" lon="13.96677"><ele>694</ele></trkpt>
<trkpt lat="50.75904" lon="13.96754"><ele>685</ele></trkpt>
<trkpt lat="50.75877" lon="13.97013"><ele>684</ele></trkpt>
<trkpt lat="50.75925" lon="13.97513"><ele>675</ele></trkpt>
<trkpt lat="50.75948" lon="13.97571"><ele>676</ele></trkpt>
<trkpt lat="50.76003" lon="13.97644"><ele>678</ele></trkpt>
<trkpt lat="50.76002" lon="13.97722"><ele>678</ele></trkpt>
<trkpt lat="50.75983" lon="13.97789"><ele>676</ele></trkpt>
<trkpt lat="50.75995" lon="13.97847"><ele>674</ele></trkpt>
<trkpt lat="50.76014" lon="13.97908"><ele>671</ele></trkpt>
<trkpt lat="50.75993" lon="13.9796"><ele>668</ele></trkpt>
<trkpt lat="50.75977" lon="13.98116"><ele>665</ele></trkpt>
<trkpt lat="50.75993" lon="13.98189"><ele>661</ele></trkpt>
<trkpt lat="50.75982" lon="13.98331"><ele>656</ele></trkpt>
<trkpt lat="50.76053" lon="13.98522"><ele>642</ele></trkpt>
<trkpt lat="50.76099" lon="13.98605"><ele>636</ele></trkpt>
<trkpt lat="50.76161" lon="13.98762"><ele>628</ele></trkpt>
<trkpt lat="50.76178" lon="13.98855"><ele>627</ele></trkpt>
<trkpt lat="50.76184" lon="13.98951"><ele>625</ele></trkpt>
<trkpt lat="50.76197" lon="13.98967"><ele>625</ele></trkpt>
<trkpt lat="50.76295" lon="13.98955"><ele>621</ele></trkpt>
<trkpt lat="50.76359" lon="13.98912"><ele>618</ele></trkpt>
<trkpt lat="50.76386" lon="13.98916"><ele>617</ele></trkpt>
<trkpt lat="50.76458" lon="13.99214"><ele>616</ele></trkpt>
<trkpt lat="50.76477" lon="13.99355"><ele>612</ele></trkpt>
<trkpt lat="50.76508" lon="13.99463"><ele>612</ele></trkpt>
<trkpt lat="50.76535" lon="13.99642"><ele>610</ele></trkpt>
<trkpt lat="50.76576" lon="13.99802"><ele>607</ele></trkpt>
<trkpt lat="50.7674" lon="14.00087"><ele>600</ele></trkpt>
<trkpt lat="50.76833" lon="14.00218"><ele>598</ele></trkpt>
<trkpt lat="50.76872" lon="14.00301"><ele>595</ele></trkpt>
<trkpt lat="50.77026" lon="14.00558"><ele>589</ele></trkpt>
<trkpt lat="50.77163" lon="14.00557"><ele>581</ele></trkpt>
<trkpt lat="50.77225" lon="14.00568"><ele>576</ele></trkpt>
<trkpt lat="50.77251" lon="14.00761"><ele>577</ele></trkpt>
<trkpt lat="50.77262" lon="14.00784"><ele>577</ele></trkpt>
<trkpt lat="50.77348" lon="14.00851"><ele>576</ele></trkpt>
<trkpt lat="50.7737" lon="14.0088"><ele>575</ele></trkpt>
<trkpt lat="50.7739" lon="14.00941"><ele>574</ele></trkpt>
<trkpt lat="50.77444" lon="14.00995"><ele>574</ele></trkpt>
<trkpt lat="50.77604" lon="14.01227"><ele>581</ele></trkpt>
<trkpt lat="50.77634" lon="14.01286"><ele>583</ele></trkpt>
<trkpt lat="50.77722" lon="14.0156"><ele>588</ele></trkpt>
<trkpt lat="50.77748" lon="14.01668"><ele>586</ele></trkpt>
<trkpt lat="50.77763" lon="14.01784"><ele>583</ele></trkpt>
<trkpt lat="50.77754" lon="14.01955"><ele>577</ele></trkpt>
<trkpt lat="50.77778" lon="14.02003"><ele>574</ele></trkpt>
<trkpt lat="50.77832" lon="14.02088"><ele>571</ele></trkpt>
<trkpt lat="50.77865" lon="14.02111"><ele>569</ele></trkpt>
<trkpt lat="50.77995" lon="14.02253"><ele>553</ele></trkpt>
<trkpt lat="50.78246" lon="14.02593"><ele>526</ele></trkpt>
<trkpt lat="50.7826" lon="14.02604"><ele>526</ele></trkpt>
<trkpt lat="50.78357" lon="14.02627"><ele>524</ele></trkpt>
<trkpt lat="50.78394" lon="14.02659"><ele>524</ele></trkpt>
<trkpt lat="50.78428" lon="14.0272"><ele>524</ele></trkpt>
<trkpt lat="50.78464" lon="14.0292"><ele>530</ele></trkpt>
<trkpt lat="50.78513" lon="14.02912"><ele>535</ele></trkpt>
<trkpt lat="50.7856" lon="14.02924"><ele>542</ele></trkpt>
<trkpt lat="50.78563" lon="14.02941"><ele>544</ele></trkpt>
<trkpt lat="50.78567" lon="14.02951"><ele>546</ele></trkpt>
<trkpt lat="50.78606" lon="14.02977"><ele>553</ele></trkpt>
<trkpt lat="50.78649" lon="14.02981"><ele>565</ele></trkpt>
<trkpt lat="50.78668" lon="14.0302"><ele>574</ele></trkpt>
<trkpt lat="50.78682" lon="14.03024"><ele>578</ele></trkpt>
<trkpt lat="50.78655" lon="14.03084"><ele>589</ele></trkpt>
<trkpt lat="50.78627" lon="14.03226"><ele>585</ele></trkpt>
<trkpt lat="50.78583" lon="14.03361"><ele>583</ele></trkpt>
<trkpt lat="50.78552" lon="14.03494"><ele>576</ele></trkpt>
<trkpt lat="50.78518" lon="14.03578"><ele>571</ele></trkpt>
<trkpt lat="50.78482" lon="14.03706"><ele>578</ele></trkpt>
<trkpt lat="50.78465" lon="14.03785"><ele>567</ele></trkpt>
<trkpt lat="50.78455" lon="14.03806"><ele>565</ele></trkpt>
<trkpt lat="50.78439" lon="14.03876"><ele>566</ele></trkpt>
<trkpt lat="50.78451" lon="14.03952"><ele>568</ele></trkpt>
<trkpt lat="50.7855" lon="14.04049"><ele>581</ele></trkpt>
<trkpt lat="50.78751" lon="14.03977"><ele>591</ele></trkpt>
<trkpt lat="50.78778" lon="14.04006"><ele>594</ele></trkpt>
<trkpt lat="50.78799" lon="14.04037"><ele>596</ele></trkpt>
<trkpt lat="50.78818" lon="14.0407"><ele>598</ele></trkpt>
<trkpt lat="50.78906" lon="14.04124"><ele>600</ele></trkpt>
<trkpt lat="50.78975" lon="14.04084"><ele>601</ele></trkpt>
<trkpt lat="50.79086" lon="14.04538"><ele>599</ele></trkpt>
<trkpt lat="50.7908" lon="14.04586"><ele>599</ele></trkpt>
<trkpt lat="50.79055" lon="14.04635"><ele>599</ele></trkpt>
<trkpt lat="50.78847" lon="14.04796"><ele>602</ele></trkpt>
<trkpt lat="50.78739" lon="14.04839"><ele>606</ele></trkpt>
<trkpt lat="50.78501" lon="14.04982"><ele>613</ele></trkpt>
<trkpt lat="50.7846" lon="14.04998"><ele>613</ele></trkpt>
<trkpt lat="50.78419" lon="14.05015"><ele>613</ele></trkpt>
<trkpt lat="50.78063" lon="14.05245"><ele>617</ele></trkpt>
<trkpt lat="50.78031" lon="14.05294"><ele>617</ele></trkpt>
<trkpt lat="50.77966" lon="14.05687"><ele>615</ele></trkpt>
<trkpt lat="50.77969" lon="14.05771"><ele>615</ele></trkpt>
<trkpt lat="50.78096" lon="14.06338"><ele>621</ele></trkpt>
<trkpt lat="50.78161" lon="14.06582"><ele>616</ele></trkpt>
<trkpt lat="50.78174" lon="14.06684"><ele>617</ele></trkpt>
<trkpt lat="50.78303" lon="14.07188"><ele>609</ele></trkpt>
<trkpt lat="50.7852" lon="14.0812"><ele>599</ele></trkpt>
<trkpt lat="50.78524" lon="14.08176"><ele>598</ele></trkpt>
<trkpt lat="50.78489" lon="14.08272"><ele>597</ele></trkpt>
<trkpt lat="50.78491" lon="14.0835"><ele>596</ele></trkpt>
<trkpt lat="50.78498" lon="14.08365"><ele>596</ele></trkpt>
<trkpt lat="50.78627" lon="14.08347"><ele>590</ele></trkpt>
<trkpt lat="50.78799" lon="14.08295"><ele>584</ele></trkpt>
<trkpt lat="50.79017" lon="14.08292"><ele>580</ele></trkpt>
<trkpt lat="50.79039" lon="14.08296"><ele>580</ele></trkpt>
<trkpt lat="50.79059" lon="14.08315"><ele>580</ele></trkpt>
<trkpt lat="50.79109" lon="14.08396"><ele>579</ele></trkpt>
<trkpt lat="50.79137" lon="14.08492"><ele>579</ele></trkpt>
<trkpt lat="50.79163" lon="14.0854"><ele>580</ele></trkpt>
<trkpt lat="50.79178" lon="14.08709"><ele>586</ele></trkpt>
<trkpt lat="50.79172" lon="14.08723"><ele>587</ele></trkpt>
<trkpt lat="50.79128" lon="14.08732"><ele>589</ele></trkpt>
<trkpt lat="50.79124" lon="14.08745"><ele>590</ele></trkpt>
<trkpt lat="50.79105" lon="14.08994"><ele>604</ele></trkpt>
<trkpt lat="50.79109" lon="14.09064"><ele>608</ele></trkpt>
<trkpt lat="50.79114" lon="14.09091"><ele>610</ele></trkpt>
<trkpt lat="50.79145" lon="14.09144"><ele>618</ele></trkpt>
<trkpt lat="50.79188" lon="14.09325"><ele>633</ele></trkpt>
<trkpt lat="50.79246" lon="14.09409"><ele>645</ele></trkpt>
<trkpt lat="50.79257" lon="14.0945"><ele>651</ele></trkpt>
<trkpt lat="50.79259" lon="14.09527"><ele>655</ele></trkpt>
<trkpt lat="50.7922" lon="14.09629"><ele>659</ele></trkpt>
<trkpt lat="50.79186" lon="14.09686"><ele>665</ele></trkpt>
<trkpt lat="50.79175" lon="14.0973"><ele>669</ele></trkpt>
<trkpt lat="50.7921" lon="14.09807"><ele>679</ele></trkpt>
<trkpt lat="50.79267" lon="14.098"><ele>683</ele></trkpt>
<trkpt lat="50.79291" lon="14.09805"><ele>683</ele></trkpt>
<trkpt lat="50.79342" lon="14.09785"><ele>683</ele></trkpt>
<trkpt lat="50.7938" lon="14.09771"><ele>685</ele></trkpt>
<trkpt lat="50.79389" lon="14.09769"><ele>685</ele></trkpt>
<trkpt lat="50.7941" lon="14.09779"><ele>687</ele></trkpt>
<trkpt lat="50.79448" lon="14.09854"><ele>701</ele></trkpt>
<trkpt lat="50.79475" lon="14.09939"><ele>704</ele></trkpt>
<trkpt lat="50.79481" lon="14.10037"><ele>702</ele></trkpt>
<trkpt lat="50.79505" lon="14.10147"><ele>708</ele></trkpt>
<trkpt lat="50.79563" lon="14.10336"><ele>703</ele></trkpt>
<trkpt lat="50.79616" lon="14.10447"><ele>703</ele></trkpt>
<trkpt lat="50.79651" lon="14.10587"><ele>701</ele></trkpt>
<trkpt lat="50.79681" lon="14.10716"><ele>700</ele></trkpt>
<trkpt lat="50.79766" lon="14.10894"><ele>698</ele></trkpt>
<trkpt lat="50.79796" lon="14.10992"><ele>690</ele></trkpt>
<trkpt lat="50.79872" lon="14.11098"><ele>688</ele></trkpt>
<trkpt lat="50.79893" lon="14.11168"><ele>684</ele></trkpt>
<trkpt lat="50.79934" lon="14.11256"><ele>678</ele></trkpt>
<trkpt lat="50.79964" lon="14.11526"><ele>672</ele></trkpt>
<trkpt lat="50.80037" lon="14.11682"><ele>667</ele></trkpt>
<trkpt lat="50.80029" lon="14.11763"><ele>663</ele></trkpt>
<trkpt lat="50.80033" lon="14.1184"><ele>647</ele></trkpt>
<trkpt lat="50.80051" lon="14.11879"><ele>638</ele></trkpt>
<trkpt lat="50.80057" lon="14.11876"><ele>636</ele></trkpt>
<trkpt lat="50.80043" lon="14.12106"><ele>620</ele></trkpt>
<trkpt lat="50.8003" lon="14.12154"><ele>616</ele></trkpt>
<trkpt lat="50.80057" lon="14.12304"><ele>600</ele></trkpt>
<trkpt lat="50.80155" lon="14.1266"><ele>578</ele></trkpt>
<trkpt lat="50.80151" lon="14.12684"><ele>577</ele></trkpt>
<trkpt lat="50.80155" lon="14.12754"><ele>574</ele></trkpt>
<trkpt lat="50.80176" lon="14.1289"><ele>571</ele></trkpt>
<trkpt lat="50.80195" lon="14.1289"><ele>571</ele></trkpt>
<trkpt lat="50.80255" lon="14.12851"><ele>570</ele></trkpt>
<trkpt lat="50.80281" lon="14.12824"><ele>569</ele></trkpt>
<trkpt lat="50.80373" lon="14.12674"><ele>568</ele></trkpt>
<trkpt lat="50.80414" lon="14.12644"><ele>566</ele></trkpt>
<trkpt lat="50.80558" lon="14.12697"><ele>554</ele></trkpt>
<trkpt lat="50.80611" lon="14.12686"><ele>547</ele></trkpt>
<trkpt lat="50.80627" lon="14.12624"><ele>538</ele></trkpt>
<trkpt lat="50.80648" lon="14.12598"><ele>533</ele></trkpt>
<trkpt lat="50.80687" lon="14.12598"><ele>525</ele></trkpt>
<trkpt lat="50.8071" lon="14.12584"><ele>521</ele></trkpt>
<trkpt lat="50.80749" lon="14.12576"><ele>515</ele></trkpt>
<trkpt lat="50.80788" lon="14.12595"><ele>511</ele></trkpt>
<trkpt lat="50.80812" lon="14.12499"><ele>508</ele></trkpt>
<trkpt lat="50.80852" lon="14.1251"><ele>508</ele></trkpt>
<trkpt lat="50.80874" lon="14.1254"><ele>508</ele></trkpt>
<trkpt lat="50.80882" lon="14.12557"><ele>508</ele></trkpt>
<trkpt lat="50.80874" lon="14.12608"><ele>509</ele></trkpt>
<trkpt lat="50.80927" lon="14.1259"><ele>512</ele></trkpt>
<trkpt lat="50.80946" lon="14.12611"><ele>513</ele></trkpt>
<trkpt lat="50.81036" lon="14.12655"><ele>516</ele></trkpt>
<trkpt lat="50.81056" lon="14.12674"><ele>517</ele></trkpt>
<trkpt lat="50.81107" lon="14.12659"><ele>518</ele></trkpt>
<trkpt lat="50.81138" lon="14.12688"><ele>516</ele></trkpt>
<trkpt lat="50.8115" lon="14.12852"><ele>514</ele></trkpt>
<trkpt lat="50.81198" lon="14.13065"><ele>516</ele></trkpt>
<trkpt lat="50.81213" lon="14.13184"><ele>516</ele></trkpt>
<trkpt lat="50.81224" lon="14.13403"><ele>517</ele></trkpt>
<trkpt lat="50.81217" lon="14.13579"><ele>512</ele></trkpt>
<trkpt lat="50.81229" lon="14.13616"><ele>512</ele></trkpt>
<trkpt lat="50.81234" lon="14.137"><ele>512</ele></trkpt>
<trkpt lat="50.81224" lon="14.13849"><ele>514</ele></trkpt>
<trkpt lat="50.81326" lon="14.14047"><ele>521</ele></trkpt>
<trkpt lat="50.81402" lon="14.141"><ele>519</ele></trkpt>
<trkpt lat="50.81431" lon="14.14148"><ele>518</ele></trkpt>
<trkpt lat="50.81451" lon="14.14294"><ele>517</ele></trkpt>
<trkpt lat="50.81607" lon="14.15021"><ele>506</ele></trkpt>
<trkpt lat="50.81596" lon="14.15115"><ele>504</ele></trkpt>
<trkpt lat="50.81478" lon="14.15591"><ele>491</ele></trkpt>
<trkpt lat="50.81454" lon="14.16041"><ele>482</ele></trkpt>
<trkpt lat="50.81392" lon="14.16548"><ele>474</ele></trkpt>
<trkpt lat="50.81365" lon="14.16649"><ele>472</ele></trkpt>
<trkpt lat="50.81373" lon="14.16861"><ele>468</ele></trkpt>
<trkpt lat="50.81403" lon="14.16924"><ele>468</ele></trkpt>
<trkpt lat="50.81449" lon="14.16973"><ele>469</ele></trkpt>
<trkpt lat="50.81493" lon="14.17106"><ele>472</ele></trkpt>
<trkpt lat="50.81544" lon="14.17223"><ele>472</ele></trkpt>
<trkpt lat="50.81762" lon="14.17932"><ele>465</ele></trkpt>
<trkpt lat="50.81898" lon="14.18277"><ele>467</ele></trkpt>
<trkpt lat="50.81914" lon="14.18295"><ele>467</ele></trkpt>
<trkpt lat="50.82055" lon="14.1836"><ele>467</ele></trkpt>
<trkpt lat="50.82336" lon="14.18278"><ele>472</ele></trkpt>
<trkpt lat="50.82645" lon="14.18193"><ele>470</ele></trkpt>
<trkpt lat="50.82708" lon="14.1813"><ele>468</ele></trkpt>
<trkpt lat="50.83114" lon="14.17892"><ele>453</ele></trkpt>
<trkpt lat="50.83562" lon="14.17744"><ele>437</ele></trkpt>
<trkpt lat="50.83621" lon="14.17859"><ele>436</ele></trkpt>
<trkpt lat="50.83772" lon="14.17941"><ele>421</ele></trkpt>
<trkpt lat="50.83881" lon="14.17974"><ele>419</ele></trkpt>
<trkpt lat="50.84039" lon="14.17946"><ele>424</ele></trkpt>
<trkpt lat="50.84166" lon="14.17889"><ele>434</ele></trkpt>
<trkpt lat="50.84233" lon="14.17905"><ele>434</ele></trkpt>
<trkpt lat="50.84243" lon="14.1792"><ele>434</ele></trkpt>
<trkpt lat="50.84601" lon="14.18085"><ele>428</ele></trkpt>
<trkpt lat="50.84662" lon="14.18127"><ele>426</ele></trkpt>
<trkpt lat="50.84749" lon="14.18146"><ele>424</ele></trkpt>
<trkpt lat="50.85047" lon="14.18185"><ele>413</ele></trkpt>
<trkpt lat="50.85152" lon="14.18179"><ele>415</ele></trkpt>
<trkpt lat="50.85196" lon="14.18249"><ele>421</ele></trkpt>
<trkpt lat="50.85565" lon="14.18309"><ele>421</ele></trkpt>
<trkpt lat="50.8609" lon="14.19313"><ele>400</ele></trkpt>
<trkpt lat="50.86231" lon="14.19468"><ele>393</ele></trkpt>
<trkpt lat="50.86259" lon="14.19514"><ele>390</ele></trkpt>
<trkpt lat="50.86343" lon="14.19741"><ele>381</ele></trkpt>
<trkpt lat="50.86831" lon="14.20947"><ele>326</ele></trkpt>
<trkpt lat="50.86901" lon="14.20975"><ele>328</ele></trkpt>
<trkpt lat="50.87111" lon="14.21064"><ele>325</ele></trkpt>
<trkpt lat="50.8728" lon="14.21115"><ele>321</ele></trkpt>
<trkpt lat="50.87259" lon="14.21158"><ele>320</ele></trkpt>
<trkpt lat="50.87241" lon="14.21285"><ele>314</ele></trkpt>
<trkpt lat="50.8733" lon="14.21305"><ele>304</ele></trkpt>
<trkpt lat="50.87389" lon="14.21336"><ele>303</ele></trkpt>
<trkpt lat="50.87428" lon="14.21393"><ele>302</ele></trkpt>
<trkpt lat="50.87622" lon="14.21461"><ele>297</ele></trkpt>
<trkpt lat="50.87822" lon="14.2151"><ele>292</ele></trkpt>
<trkpt lat="50.87844" lon="14.21524"><ele>291</ele></trkpt>
<trkpt lat="50.87969" lon="14.21549"><ele>287</ele></trkpt>
<trkpt lat="50.88071" lon="14.21591"><ele>283</ele></trkpt>
<trkpt lat="50.8814" lon="14.21749"><ele>277</ele></trkpt>
<trkpt lat="50.88167" lon="14.21861"><ele>276</ele></trkpt>
<trkpt lat="50.88235" lon="14.21926"><ele>274</ele></trkpt>
<trkpt lat="50.88367" lon="14.22234"><ele>265</ele></trkpt>
<trkpt lat="50.88439" lon="14.22326"><ele>259</ele></trkpt>
<trkpt lat="50.88512" lon="14.22483"><ele>252</ele></trkpt>
<trkpt lat="50.88541" lon="14.22525"><ele>251</ele></trkpt>
<trkpt lat="50.88587" lon="14.22782"><ele>245</ele></trkpt>
<trkpt lat="50.88608" lon="14.22856"><ele>241</ele></trkpt>
<trkpt lat="50.88636" lon="14.2286"><ele>239</ele></trkpt>
<trkpt lat="50.8869" lon="14.2292"><ele>210</ele></trkpt>
<trkpt lat="50.88745" lon="14.22952"><ele>187</ele></trkpt>
<trkpt lat="50.88724" lon="14.22981"><ele>179</ele></trkpt>
<trkpt lat="50.88763" lon="14.23086"><ele>153</ele></trkpt>
<trkpt lat="50.88883" lon="14.23012"><ele>128</ele></trkpt>
<trkpt lat="50.89002" lon="14.22855"><ele>137</ele></trkpt>
<trkpt lat="50.88972" lon="14.22871"><ele>139</ele></trkpt>
<trkpt lat="50.88972" lon="14.2287"><ele>139</ele></trkpt>
      </trkseg></trk>
   
</gpx>
   